NORAD_CAT_ID,OBJECT_NAME,OBJECT_TYPE,EPOCH,MEAN_MOTION,ECCENTRICITY,INCLINATION,RA_OF_ASC_NODE,ARG_OF_PERICENTER,MEAN_ANOMALY,BSTAR,MEAN_MOTION_DOT,MEAN_MOTION_DDOT,TLE_LINE0,TLE_LINE1,TLE_LINE2,SEMIMAJOR_AXIS,PERIOD,APOGEE,PERIGEE,DECAYED
52282.0,STARLINK-3783,PAYLOAD,2024-08-08 02:37:41,15.08853395,0.000146,53.2165,176.4704,110.991,249.1239,0.00040667,6.192e-05,0.0,0 STARLINK-3783,1 52282U 22041X   24221.10950293  .00006192  00000-0  40667-3 0  9992,2 52282  53.2165 176.4704 0001460 110.9910 249.1239 15.08853395127157,6917.839,95.437,540.714,538.694,0.0
52282.0,STARLINK-3783,PAYLOAD,2024-08-09 04:03:51,15.08847562,0.0001374,53.216,171.7095,79.4046,280.71,0.00033052,4.977e-05,0.0,0 STARLINK-3783,1 52282U 22041X   24222.16934234  .00004977  00000-0  33052-3 0  9995,2 52282  53.2160 171.7095 0001374  79.4046 280.7100 15.08847562128536,6917.857,95.437,540.673,538.772,0.0
52282.0,STARLINK-3783,PAYLOAD,2024-08-09 13:36:10,15.0884362,0.0001778,53.2161,169.9231,85.9558,274.1638,5.353e-05,5.64e-06,0.0,0 STARLINK-3783,1 52282U 22041X   24222.56678268  .00000564  00000-0  53530-4 0  9993,2 52282  53.2161 169.9231 0001778  85.9558 274.1638 15.08843620127371,6917.869,95.437,540.964,538.504,0.0
52282.0,STARLINK-3783,PAYLOAD,2024-08-09 19:57:42,15.08841994,0.0002017,53.2164,168.7371,89.9204,270.2019,0.00011652,1.567e-05,0.0,0 STARLINK-3783,1 52282U 22041X   24222.83174446  .00001567  00000-0  11652-3 0  9994,2 52282  53.2164 168.7371 0002017  89.9204 270.2019 15.08841994128637,6917.874,95.437,541.135,538.344,0.0
52282.0,STARLINK-3783,PAYLOAD,2024-08-10 03:54:38,15.08846187,0.0001297,53.2163,167.2451,85.4615,274.6525,0.00020094,2.912e-05,0.0,0 STARLINK-3783,1 52282U 22041X   24223.16294129  .00002912  00000-0  20094-3 0  9997,2 52282  53.2163 167.2451 0001297  85.4615 274.6525 15.08846187127464,6917.861,95.437,540.624,538.829,0.0
52282.0,STARLINK-3783,PAYLOAD,2024-08-11 02:10:02,15.08847588,0.0003146,53.2165,163.0867,39.6702,320.4519,0.00030271,4.534e-05,0.0,0 STARLINK-3783,1 52282U 22041X   24224.09030936  .00004534  00000-0  30271-3 0  9994,2 52282  53.2165 163.0867 0003146  39.6702 320.4519 15.08847588128824,6917.857,95.437,541.899,537.546,0.0
52282.0,STARLINK-3783,PAYLOAD,2024-08-11 03:45:24,15.0886328,0.0001393,53.2157,162.7878,103.7385,256.3763,0.00053284,8.208e-05,0.0,0 STARLINK-3783,1 52282U 22041X   24224.15653749  .00008208  00000-0  53284-3 0  9995,2 52282  53.2157 162.7878 0001393 103.7385 256.3763 15.08863280128831,6917.809,95.436,540.638,538.711,0.0
52282.0,STARLINK-3783,PAYLOAD,2024-08-11 19:39:17,15.08844718,0.0002022,53.2148,159.8163,77.657,282.4649,0.00023797,3.502e-05,0.0,0 STARLINK-3783,1 52282U 22041X   24224.81895141  .00003502  00000-0  23797-3 0  9990,2 52282  53.2148 159.8163 0002022  77.6570 282.4649 15.08844718128939,6917.866,95.437,541.13,538.332,0.0
52282.0,STARLINK-3783,PAYLOAD,2024-08-12 02:00:49,15.08856866,0.0001492,53.2173,158.6265,84.7047,275.4115,0.00037579,5.7e-05,0.0,0 STARLINK-3783,1 52282U 22041X   24225.08390421  .00005700  00000-0  37579-3 0  9996,2 52282  53.2173 158.6265 0001492  84.7047 275.4115 15.08856866128976,6917.829,95.436,540.726,538.662,0.0
52282.0,STARLINK-3783,PAYLOAD,2024-08-12 13:08:30,15.08864287,0.0001426,53.2166,156.5451,88.0212,272.0943,0.00063102,9.776e-05,0.0,0 STARLINK-3783,1 52282U 22041X   24225.54757415  .00009776  00000-0  63102-3 0  9995,2 52282  53.2166 156.5451 0001426  88.0212 272.0943 15.08864287127821,6917.806,95.436,540.658,538.685,0.0
52282.0,STARLINK-3783,PAYLOAD,2024-08-12 22:40:48,15.0886269,0.0001592,53.2162,154.7617,91.0476,269.0698,0.00038176,5.797e-05,0.0,0 STARLINK-3783,1 52282U 22041X   24225.94501078  .00005797  00000-0  38176-3 0  9993,2 52282  53.2162 154.7617 0001592  91.0476 269.0698 15.08862690127886,6917.811,95.436,540.777,538.575,0.0
52282.0,STARLINK-3783,PAYLOAD,2024-08-13 01:51:36,15.08815808,0.0001589,53.2157,154.1653,94.8409,265.2765,-0.00065826,-0.00010742,0.0,0 STARLINK-3783,1 52282U 22041X   24226.07750638 -.00010742  00000-0 -65826-3 0  9996,2 52282  53.2157 154.1653 0001589  94.8409 265.2765 15.08815808129128,6917.954,95.439,540.919,538.72,0.0
52282.0,STARLINK-3783,PAYLOAD,2024-08-13 19:20:53,15.08790883,0.0001495,53.2154,150.8929,91.5171,268.5992,-0.00064052,-0.00010454,0.0,0 STARLINK-3783,1 52282U 22041X   24226.80617308 -.00010454  00000-0 -64052-3 0  9993,2 52282  53.2154 150.8929 0001495  91.5171 268.5992 15.08790883129235,6918.031,95.441,540.93,538.861,0.0
52282.0,STARLINK-3783,PAYLOAD,2024-08-13 22:31:38,15.088356,0.0001543,53.2152,150.3021,91.8359,268.281,0.00031788,4.774e-05,0.0,0 STARLINK-3783,1 52282U 22041X   24226.93864325  .00004774  00000-0  31788-3 0  9996,2 52282  53.2152 150.3021 0001543  91.8359 268.2810 15.08835600128036,6917.894,95.438,540.826,538.691,0.0
52282.0,STARLINK-3783,PAYLOAD,2024-08-14 01:42:25,15.08839705,0.0001474,53.2153,149.7041,93.577,266.5391,0.00059414,9.18e-05,0.0,0 STARLINK-3783,1 52282U 22041X   24227.07112474  .00009180  00000-0  59414-3 0  9995,2 52282  53.2153 149.7041 0001474  93.5770 266.5391 15.08839705129272,6917.881,95.438,540.766,538.727,0.0
52282.0,STARLINK-3783,PAYLOAD,2024-08-14 22:22:25,15.08851988,0.0001422,53.2159,145.8374,96.6925,263.4229,0.00069296,0.00010761,0.0,0 STARLINK-3783,1 52282U 22041X   24227.93224153  .00010761  00000-0  69296-3 0  9994,2 52282  53.2159 145.8374 0001422  96.6925 263.4229 15.08851988128185,6917.844,95.437,540.692,538.725,0.0
52282.0,STARLINK-3783,PAYLOAD,2024-08-15 11:05:30,15.08852655,0.0001393,53.2156,143.4602,84.5786,275.5365,0.00043187,6.594e-05,0.0,0 STARLINK-3783,1 52282U 22041X   24228.46215585  .00006594  00000-0  43187-3 0  9992,2 52282  53.2156 143.4602 0001393  84.5786 275.5365 15.08852655128264,6917.842,95.437,540.67,538.743,0.0
52282.0,STARLINK-3783,PAYLOAD,2024-08-15 22:13:11,15.0884547,0.0001334,53.2162,141.3785,94.2588,265.8556,-0.00019629,-3.411e-05,0.0,0 STARLINK-3783,1 52282U 22041X   24228.92583255 -.00003411  00000-0 -19629-3 0  9996,2 52282  53.2162 141.3785 0001334  94.2588 265.8556 15.08845470128332,6917.864,95.437,540.652,538.806,0.0
52282.0,STARLINK-3783,PAYLOAD,2024-08-16 01:23:58,15.08851829,0.0001427,53.2159,140.7877,110.3071,249.8074,-6.0229e-05,-1.247e-05,0.0,0 STARLINK-3783,1 52282U 22041X   24229.05831053 -.00001247  00000-0 -60229-4 0  9991,2 52282  53.2159 140.7877 0001427 110.3071 249.8074 15.08851829129572,6917.844,95.437,540.696,538.722,0.0
52282.0,STARLINK-3783,PAYLOAD,2024-08-17 02:50:07,15.08854448,0.0001331,53.2156,136.0302,112.8658,247.2475,0.00017969,2.574e-05,0.0,0 STARLINK-3783,1 52282U 22041X   24230.11814657  .00002574  00000-0  17969-3 0  9995,2 52282  53.2156 136.0302 0001331 112.8658 247.2475 15.08854448129737,6917.836,95.437,540.622,538.78,0.0
52282.0,STARLINK-3783,PAYLOAD,2024-08-17 17:08:36,15.0883897,0.0001416,53.2155,133.3558,97.0767,263.0387,0.00011411,1.529e-05,0.0,0 STARLINK-3783,1 52282U 22041X   24230.71431440  .00001529  00000-0  11411-3 0  9991,2 52282  53.2155 133.3558 0001416  97.0767 263.0387 15.08838970129828,6917.884,95.438,540.728,538.769,0.0
52282.0,STARLINK-3783,PAYLOAD,2024-08-17 21:54:46,15.08835643,0.0001389,53.2161,132.4585,118.8808,241.2323,5.6786e-05,6.16e-06,0.0,0 STARLINK-3783,1 52282U 22041X   24230.91303556  .00000616  00000-0  56786-4 0  9990,2 52282  53.2161 132.4585 0001389 118.8808 241.2323 15.08835643128632,6917.894,95.438,540.72,538.798,0.0
52282.0,STARLINK-3783,PAYLOAD,2024-08-18 02:40:55,15.08843082,0.0001226,53.2161,131.5663,92.0554,268.0578,0.00029933,4.48e-05,0.0,0 STARLINK-3783,1 52282U 22041X   24231.11175442  .00004480  00000-0  29933-3 0  9990,2 52282  53.2161 131.5663 0001226  92.0554 268.0578 15.08843082128668,6917.871,95.437,540.584,538.888,0.0
52282.0,STARLINK-3783,PAYLOAD,2024-08-18 21:45:33,15.08852011,0.0001168,53.216,127.9976,93.4281,266.6844,0.00053867,8.298e-05,0.0,0 STARLINK-3783,1 52282U 22041X   24231.90663306  .00008298  00000-0  53867-3 0  9992,2 52282  53.2160 127.9976 0001168  93.4281 266.6844 15.08852011128785,6917.844,95.437,540.517,538.901,0.0
52282.0,STARLINK-3783,PAYLOAD,2024-08-19 00:56:19,15.08860917,0.0001249,53.2161,127.4053,84.3488,275.7647,0.00091179,0.00014261,0.0,0 STARLINK-3783,1 52282U 22041X   24232.03911125  .00014261  00000-0  91179-3 0  9997,2 52282  53.2161 127.4053 0001249  84.3488 275.7647 15.08860917130021,6917.816,95.436,540.545,538.817,0.0
52282.0,STARLINK-3783,PAYLOAD,2024-08-19 10:28:37,15.088504,0.0001059,53.216,125.62,89.0524,271.059,0.00022162,3.242e-05,0.0,0 STARLINK-3783,1 52282U 22041X   24232.43654948  .00003242  00000-0  22162-3 0  9991,2 52282  53.2160 125.6200 0001059  89.0524 271.0590 15.08850400130084,6917.849,95.437,540.446,538.981,0.0
52282.0,STARLINK-3783,PAYLOAD,2024-08-20 02:22:29,15.08841538,0.0001457,53.2164,122.6438,101.5356,258.5799,8.7625e-05,1.107e-05,0.0,0 STARLINK-3783,1 52282U 22041X   24233.09895460  .00001107  00000-0  87625-4 0  9994,2 52282  53.2164 122.6438 0001457 101.5356 258.5799 15.08841538130187,6917.876,95.437,540.749,538.733,0.0
52282.0,STARLINK-3783,PAYLOAD,2024-08-20 23:02:30,15.08847009,0.000155,53.2166,118.778,97.3483,262.7685,0.00026883,3.994e-05,0.0,0 STARLINK-3783,1 52282U 22041X   24233.96007481  .00003994  00000-0  26883-3 0  9992,2 52282  53.2166 118.7780 0001550  97.3483 262.7685 15.08847009129090,6917.859,95.437,540.796,538.652,0.0
52282.0,STARLINK-3783,PAYLOAD,2024-08-21 19:42:31,15.08841565,0.0001483,53.2154,114.911,111.8682,248.2468,0.00022603,3.311e-05,0.0,0 STARLINK-3783,1 52282U 22041X   24234.82119828  .00003311  00000-0  22603-3 0  9996,2 52282  53.2154 114.9110 0001483 111.8682 248.2468 15.08841565130440,6917.876,95.437,540.767,538.715,0.0
